NORAD_CAT_ID,OBJECT_NAME,OBJECT_TYPE,EPOCH,MEAN_MOTION,ECCENTRICITY,INCLINATION,RA_OF_ASC_NODE,ARG_OF_PERICENTER,MEAN_ANOMALY,BSTAR,MEAN_MOTION_DOT,MEAN_MOTION_DDOT,TLE_LINE0,TLE_LINE1,TLE_LINE2,SEMIMAJOR_AXIS,PERIOD,APOGEE,PERIGEE,DECAYED
51791.0,STARLINK-3602,PAYLOAD,2024-06-07 23:20:39,15.08846032,0.000179,53.2143,340.922,94.1724,265.9473,1.8999e-05,1.4e-07,0.0,0 STARLINK-3602,1 51791U 22017Z   24159.97267890  .00000014  00000-0  18999-4 0  9999,2 51791  53.2143 340.9220 0001790  94.1724 265.9473 15.08846032127347,6917.862,95.437,540.965,538.489,0.0
51791.0,STARLINK-3602,PAYLOAD,2024-06-08 05:42:11,15.08852868,0.0001699,53.2159,339.7321,98.7017,261.4168,7.9961e-05,9.85e-06,0.0,0 STARLINK-3602,1 51791U 22017Z   24160.23763167  .00000985  00000-0  79961-4 0  9991,2 51791  53.2159 339.7321 0001699  98.7017 261.4168 15.08852868127385,6917.841,95.437,540.881,538.531,0.0
51791.0,STARLINK-3602,PAYLOAD,2024-06-08 21:36:03,15.0884342,0.0001465,53.2184,336.7608,98.4088,261.707,1.3188e-05,-7.8e-07,0.0,0 STARLINK-3602,1 51791U 22017Z   24160.90003856 -.00000078  00000-0  13188-4 0  9990,2 51791  53.2184 336.7608 0001465  98.4088 261.7070 15.08843420127484,6917.87,95.437,540.748,538.721,0.0
51791.0,STARLINK-3602,PAYLOAD,2024-06-08 23:11:25,15.08855949,0.0001058,53.2184,336.4625,100.3934,259.7177,0.0001222,1.658e-05,0.0,0 STARLINK-3602,1 51791U 22017Z   24160.96626714  .00001658  00000-0  12220-3 0  9999,2 51791  53.2184 336.4625 0001058 100.3934 259.7177 15.08855949127496,6917.832,95.437,540.429,538.965,0.0
51791.0,STARLINK-3602,PAYLOAD,2024-06-09 19:51:27,15.08837805,0.0001439,53.2185,332.5967,88.546,271.5697,3.3105e-05,2.39e-06,0.0,0 STARLINK-3602,1 51791U 22017Z   24161.82740436  .00000239  00000-0  33105-4 0  9993,2 51791  53.2185 332.5967 0001439  88.5460 271.5697 15.08837805127622,6917.887,95.438,540.748,538.757,0.0
51791.0,STARLINK-3602,PAYLOAD,2024-06-10 10:09:55,15.08840067,0.000149,53.215,329.9219,89.3144,270.8019,3.5775e-05,2.81e-06,0.0,0 STARLINK-3602,1 51791U 22017Z   24162.42356193  .00000281  00000-0  35775-4 0  9995,2 51791  53.2150 329.9219 0001490  89.3144 270.8019 15.08840067127713,6917.88,95.438,540.776,538.714,0.0
51791.0,STARLINK-3602,PAYLOAD,2024-06-10 18:06:51,15.08839039,0.0001389,53.2173,328.4345,89.2576,270.8575,9.7337e-05,1.261e-05,0.0,0 STARLINK-3602,1 51791U 22017Z   24162.75476370  .00001261  00000-0  97337-4 0  9992,2 51791  53.2173 328.4345 0001389  89.2576 270.8575 15.08839039127766,6917.883,95.438,540.709,538.787,0.0
51791.0,STARLINK-3602,PAYLOAD,2024-06-11 03:39:09,15.0885402,0.0001268,53.2188,326.6498,87.0785,273.0352,0.00015482,2.178e-05,0.0,0 STARLINK-3602,1 51791U 22017Z   24163.15219215  .00002178  00000-0  15482-3 0  9998,2 51791  53.2188 326.6498 0001268  87.0785 273.0352 15.08854020127827,6917.838,95.437,540.58,538.825,0.0
51791.0,STARLINK-3602,PAYLOAD,2024-06-11 11:36:06,15.088284,0.0001253,53.2181,325.1637,87.6921,272.4214,-3.6899e-05,-8.75e-06,0.0,0 STARLINK-3602,1 51791U 22017Z   24163.48340829 -.00000875  00000-0 -36899-4 0  9990,2 51791  53.2181 325.1637 0001253  87.6921 272.4214 15.08828400127879,6917.916,95.438,540.648,538.914,0.0
51791.0,STARLINK-3602,PAYLOAD,2024-06-11 19:33:01,15.08844182,0.0001218,53.219,323.6792,98.4698,261.6432,-6.7971e-05,-1.37e-05,0.0,0 STARLINK-3602,1 51791U 22017Z   24163.81460021 -.00001370  00000-0 -67971-4 0  9990,2 51791  53.2190 323.6792 0001218  98.4698 261.6432 15.08844182127929,6917.868,95.437,540.575,538.89,0.0
51791.0,STARLINK-3602,PAYLOAD,2024-06-12 17:48:25,15.08840031,0.0001135,53.2179,319.5135,85.137,274.9751,-9.8773e-06,-4.45e-06,0.0,0 STARLINK-3602,1 51791U 22017Z   24164.74196479 -.00000445  00000-0 -98773-5 0  9993,2 51791  53.2179 319.5135 0001135  85.1370 274.9751 15.08840031128065,6917.88,95.438,540.53,538.96,0.0
51791.0,STARLINK-3602,PAYLOAD,2024-06-13 14:28:27,15.08829857,0.0001056,53.2175,315.6478,88.567,271.5443,0.00034933,5.275e-05,0.0,0 STARLINK-3602,1 51791U 22017Z   24165.60309224  .00005275  00000-0  34933-3 0  9993,2 51791  53.2175 315.6478 0001056  88.5670 271.5443 15.08829857128198,6917.911,95.438,540.507,539.046,0.0
51791.0,STARLINK-3602,PAYLOAD,2024-06-13 17:39:12,15.08843209,0.0001074,53.2178,315.0527,86.2709,273.8406,0.00010808,1.433e-05,0.0,0 STARLINK-3602,1 51791U 22017Z   24165.73556546  .00001433  00000-0  10808-3 0  9995,2 51791  53.2178 315.0527 0001074  86.2709 273.8406 15.08843209128212,6917.871,95.437,540.479,538.993,0.0
51791.0,STARLINK-3602,PAYLOAD,2024-06-14 14:19:13,15.08839818,0.0001357,53.2169,311.1847,97.6656,262.449,8.6477e-05,1.089e-05,0.0,0 STARLINK-3602,1 51791U 22017Z   24166.59668774  .00001089  00000-0  86477-4 0  9990,2 51791  53.2169 311.1847 0001357  97.6656 262.4490 15.08839818128347,6917.881,95.438,540.685,538.807,0.0
51791.0,STARLINK-3602,PAYLOAD,2024-06-14 19:05:23,15.0884243,0.0001145,53.2176,310.2923,95.6624,264.4498,0.00010292,1.351e-05,0.0,0 STARLINK-3602,1 51791U 22017Z   24166.79540566  .00001351  00000-0  10292-3 0  9993,2 51791  53.2176 310.2923 0001145  95.6624 264.4498 15.08842430128375,6917.873,95.437,540.53,538.946,0.0
51791.0,STARLINK-3602,PAYLOAD,2024-06-15 14:10:00,15.08845756,0.0001773,53.2165,306.7237,106.2824,253.8363,8.5819e-05,1.078e-05,0.0,0 STARLINK-3602,1 51791U 22017Z   24167.59028413  .00001078  00000-0  85819-4 0  9998,2 51791  53.2165 306.7237 0001773 106.2824 253.8363 15.08845756128499,6917.863,95.437,540.954,538.501,0.0
51791.0,STARLINK-3602,PAYLOAD,2024-06-15 15:45:23,15.0884736,0.0001577,53.2173,306.4257,111.8496,248.2664,7.3309e-05,8.79e-06,0.0,0 STARLINK-3602,1 51791U 22017Z   24167.65652273  .00000879  00000-0  73309-4 0  9991,2 51791  53.2173 306.4257 0001577 111.8496 248.2664 15.08847360128503,6917.858,95.437,540.814,538.632,0.0
51791.0,STARLINK-3602,PAYLOAD,2024-06-16 14:00:47,15.08841526,0.0001745,53.2173,302.262,123.134,236.982,0.00011155,1.488e-05,0.0,0 STARLINK-3602,1 51791U 22017Z   24168.58388417  .00001488  00000-0  11155-3 0  9997,2 51791  53.2173 302.2620 0001745 123.1340 236.9820 15.08841526128643,6917.876,95.437,540.948,538.534,0.0
51791.0,STARLINK-3602,PAYLOAD,2024-06-16 18:46:57,15.08842155,0.0001473,53.2193,301.3746,96.1658,263.9502,4.5963e-05,4.44e-06,0.0,0 STARLINK-3602,1 51791U 22017Z   24168.78260540  .00000444  00000-0  45963-4 0  9991,2 51791  53.2193 301.3746 0001473  96.1658 263.9502 15.08842155128672,6917.874,95.437,540.758,538.72,0.0
51791.0,STARLINK-3602,PAYLOAD,2024-06-17 15:26:58,15.08835258,0.0001352,53.2184,297.507,99.2766,260.8379,4.6474e-05,4.52e-06,0.0,0 STARLINK-3602,1 51791U 22017Z   24169.64373039  .00000452  00000-0  46474-4 0  9992,2 51791  53.2184 297.5070 0001352  99.2766 260.8379 15.08835258128807,6917.895,95.438,540.695,538.825,0.0
51791.0,STARLINK-3602,PAYLOAD,2024-06-18 13:42:22,15.08832843,0.0001389,53.2194,293.3487,96.0705,264.0445,0.00012442,1.692e-05,0.0,0 STARLINK-3602,1 51791U 22017Z   24170.57109416  .00001692  00000-0  12442-3 0  9996,2 51791  53.2194 293.3487 0001389  96.0705 264.0445 15.08832843128944,6917.902,95.438,540.728,538.806,0.0
51791.0,STARLINK-3602,PAYLOAD,2024-06-18 15:17:45,15.08837457,0.0001403,53.2193,293.0522,100.0011,260.1139,6.8243e-05,7.98e-06,0.0,0 STARLINK-3602,1 51791U 22017Z   24170.63733295  .00000798  00000-0  68243-4 0  9998,2 51791  53.2193 293.0522 0001403 100.0011 260.1139 15.08837457128957,6917.888,95.438,540.724,538.783,0.0
51791.0,STARLINK-3602,PAYLOAD,2024-06-19 00:50:03,15.08850623,0.0001373,53.2188,291.2694,101.9084,258.2062,0.00015052,2.109e-05,0.0,0 STARLINK-3602,1 51791U 22017Z   24171.03476298  .00002109  00000-0  15052-3 0  9997,2 51791  53.2188 291.2694 0001373 101.9084 258.2062 15.08850623129018,6917.848,95.437,540.663,538.763,0.0
51791.0,STARLINK-3602,PAYLOAD,2024-06-19 13:33:09,15.08828967,0.0001542,53.2184,288.8895,102.2668,257.8497,1.3895e-06,-2.66e-06,0.0,0 STARLINK-3602,1 51791U 22017Z   24171.56469708 -.00000266  00000-0  13895-5 0  9991,2 51791  53.2184 288.8895 0001542 102.2668 257.8497 15.08828967129090,6917.914,95.438,540.846,538.712,0.0
51791.0,STARLINK-3602,PAYLOAD,2024-06-19 15:08:32,15.08829463,0.0001535,53.2183,288.5921,104.0329,256.0834,7.6126e-06,-1.67e-06,0.0,0 STARLINK-3602,1 51791U 22017Z   24171.63093712 -.00000167  00000-0  76126-5 0  9993,2 51791  53.2183 288.5921 0001535 104.0329 256.0834 15.08829463129102,6917.913,95.438,540.839,538.716,0.0
51791.0,STARLINK-3602,PAYLOAD,2024-06-19 18:19:19,15.08834393,0.0001517,53.2182,287.9949,98.0257,262.0907,6.1221e-05,6.86e-06,0.0,0 STARLINK-3602,1 51791U 22017Z   24171.76341491  .00000686  00000-0  61221-4 0  9991,2 51791  53.2182 287.9949 0001517  98.0257 262.0907 15.08834393129124,6917.898,95.438,540.812,538.713,0.0
51791.0,STARLINK-3602,PAYLOAD,2024-06-20 13:23:56,15.08839658,0.0001392,53.2177,284.4263,93.2799,266.8352,9.4161e-05,1.211e-05,0.0,0 STARLINK-3602,1 51791U 22017Z   24172.55829513  .00001211  00000-0  94161-4 0  9999,2 51791  53.2177 284.4263 0001392  93.2799 266.8352 15.08839658129246,6917.881,95.438,540.709,538.783,0.0
51791.0,STARLINK-3602,PAYLOAD,2024-06-20 16:34:42,15.08843757,0.0001348,53.2173,283.8311,90.3003,269.8144,0.00020675,3.004e-05,0.0,0 STARLINK-3602,1 51791U 22017Z   24172.69077350  .00003004  00000-0  20675-3 0  9998,2 51791  53.2173 283.8311 0001348  90.3003 269.8144 15.08843757129265,6917.869,95.437,540.666,538.801,0.0
51791.0,STARLINK-3602,PAYLOAD,2024-06-21 13:14:43,15.08845427,0.0001277,53.2166,279.9649,84.8968,275.217,0.0002212,3.235e-05,0.0,0 STARLINK-3602,1 51791U 22017Z   24173.55189335  .00003235  00000-0  22120-3 0  9994,2 51791  53.2166 279.9649 0001277  84.8968 275.2170 15.08845427129396,6917.864,95.437,540.612,538.845,0.0
51791.0,STARLINK-3602,PAYLOAD,2024-06-21 16:25:29,15.08846703,0.0001355,53.2169,279.3703,82.1603,277.9543,0.00023947,3.526e-05,0.0,0 STARLINK-3602,1 51791U 22017Z   24173.68437288  .00003526  00000-0  23947-3 0  9992,2 51791  53.2169 279.3703 0001355  82.1603 277.9543 15.08846703129412,6917.86,95.437,540.662,538.788,0.0
